#dP2020  5 13  0  0  0.00000000      97 __u+U IGS14 FIT  IAC
## 2105 259200.00000000   900.00000000 58982 0.0000000000000
+  123   C01C02C03C04C05C06C07C08C09C10C11C12C13C14C16C19C20
+        C21C22C23C24C25C26C27C28C29C30C32C33C34C35C36C37C38
+        C39C40C43C44C45C46E01E02E03E04E05E07E08E09E11E12E13
+        E14E15E18E19E21E24E25E26E27E30E31E33E36G01G02G03G04
+        G05G06G07G08G09G10G11G12G13G14G15G16G17G18G19G20G21
+        G22G23G24G25G26G27G28G29G30G31G32J01J02J03J07R01R02
+        R03R04R05R07R08R09R11R12R13R14R15R16R17R18R19R20R21
+        R22R23R24R26  0  0  0  0  0  0  0  0  0  0  0  0  0
++         0  0  0  0  0  0  0  0  0  0  0  0  0  0  0  0  0
++         0  0  0  0  0  0  0  0  0  0  0  0  0  0  0  0  0
++         0  0  0  0  0  0  0  0  0  0  0  0  0  0  0  0  0
++         0  0  0  0  0  0  0  0  0  0  0  0  0  0  0  0  0
++         0  0  0  0  0  0  0  0  0  0  0  0  0  0  0  0  0
++         0  0  0  0  0  0  0  0  0  0  0  0  0  0  0  0  0
++         0  0  0  0  0  0  0  0  0  0  0  0  0  0  0  0  0
++         0  0  0  0  0  0  0  0  0  0  0  0  0  0  0  0  0
%c M  cc GPS ccc cccc cccc cccc cccc ccccc ccccc ccccc ccccc
%c cc cc ccc ccc cccc cccc cccc cccc ccccc ccccc ccccc ccccc
%f  1.2500000  1.025000000  0.00000000000  0.000000000000000
%f  0.0000000  0.000000000  0.00000000000  0.000000000000000
%i    0    0    0    0      0      0      0      0         0
%i    0    0    0    0      0      0      0      0         0
/* INFORMATION & ANALYSIS CENTER (IAC)            FINAL DATA
/* S/V CLOCKS ARE ALIGNED TO GNSS TIME                      
/* G:C1WC2W R:C1PC2P E:C1XC5X C:C2IC6I J:C1CC2S             
/* PCV:IGS14_2101 OL/AL:FES2004  NONE     YN ORB:CoN CLK:CoN
*  2020 05 13 11 30  0.00000000
PC01 -34341.939822  24415.539738   -756.443728   -517.986779
PC02   4378.460319  41933.694341    946.198683    353.592703
PC03 -14800.381577  39461.659344   1044.067032    690.485676
PC04 -39621.321603  14406.013738    173.057401   -220.044859
PC05  21891.130017  36038.043176    629.742803   -274.651006
PC06 -25041.220027  32206.006470 -11106.021723    731.515388
PC07 -10034.847606  33305.293011 -23300.689359    -29.389511
PC08 -14535.420768  17527.690786  35536.899896   -250.323048
PC09 -11286.549726  31885.722956 -25147.866489    537.380262
PC10   1907.298504  40241.041239 -11523.046662   -936.823126
PC11  18226.202988 -17350.900982 -12056.957502   -361.898413
PC12  25997.965354  -8331.574126   5865.887663    371.792819
PC13   1487.588762  24002.784745  34756.892244    433.367799
PC14   9464.158306 -23600.657629 -11529.699915    401.794239
PC16 -21868.106010  33034.029427 -14627.082144   -646.296650
PC19  -3650.350761  27496.608075   2995.589211    411.106492
PC20 -13444.208163  16643.433746  17923.196888   -878.134562
PC21  15567.399084   4504.975686 -22690.426028   -395.603387
PC22   8455.527442  22564.594832 -14034.154492   -808.245270
PC23 -17852.527954 -19610.324703   8697.942946   -878.136884
PC24  17509.795527  -6033.725025  20873.405180   -823.833814
PC25  -1167.518635 -18394.999686  20944.024199   -615.419074
PC26  25014.588045   8409.850074   9113.700158    678.881936
PC27 -24208.775906    828.209916 -13894.561701    329.235202
PC28 -10088.987740 -12620.587775 -22751.774799    320.335800
PC29  -9128.477083  19009.674199  18271.477288    227.872782
PC30 -23702.618763  14489.396124   2780.648635    316.225514
PC32 -15637.627112  -4396.956517  22713.613653   -894.511163
PC33   3513.760361 -27532.716497  -2986.897856   -838.820991
PC34  23510.690265 -14653.289961  -3245.288459   -715.145486
PC35  10338.641955  12444.242883  22730.591287   -846.973746
PC36    520.105702  18321.131461 -21017.712482   -829.538573
PC37 -24815.812402  -9474.314689  -8519.537001   -842.800481
PC38  -9181.323377  22144.748362  34699.021577     77.626173
PC39 -17125.510820  34541.182666 -17182.308622     15.733263
PC40  -2967.292014  38950.700969 -15625.318042     43.007938
PC43   9446.833431 -19048.831565 -18065.591785   -191.702443
PC44  24098.115581  -1390.877445  13965.917611   -219.312942
PC45  17936.593449  19514.539819  -8748.239341    130.729629
PC46 -17035.052429   6416.392506 -21136.085499 999999.999999
PE01 -18848.316070  -1852.171572 -22750.610846   -855.575427
PE02  18820.348490   1772.759951  22776.371296    133.022796
PE03  20587.885441  -9362.413246 -19096.995311   -298.181569
PE04 -16129.687105  24602.335221   3280.917447   -524.491645
PE05  13023.049367  11579.662037 -23917.533057   -380.623446
PE07   2076.863792 -25594.374934  14746.707682   -381.176984
PE08  15830.598041 -24830.782557  -3066.088564   6178.932374
PE09  -1919.567113  25513.160912 -14859.863426   6062.710934
PE11   4089.261276  16036.836045  24532.583078   2807.571871
PE12 -18270.385481  13232.953239  19177.663822   5807.665094
PE13  -3896.050410 -15969.136256 -24613.076864    400.807917
PE14 -10098.201983 -18486.237097 -24927.029921  -1012.265662
PE15  18002.007422 -13324.033009 -19342.920503    867.223335
PE18   8628.312740  12097.486096  17977.034906  -1111.185349
PE19 -20235.933603   7259.751069  20358.254573  -2026.816372
PE21 -19669.519314 -19914.968206  -9634.069897   -598.675167
PE24   8635.762204  26682.267997  -9512.309304   5458.124156
PE25  19632.449393  20005.449669   9515.825115   -510.517065
PE26 -23737.064516  -9284.562898 -15050.838471   3194.628726
PE27  -8956.003672 -26627.165158   9319.290771    221.004636
PE30   7341.008094 -17392.198374  22784.758002   3910.957496
PE31  -6960.583617  17668.315350 -22701.690860   -472.538887
PE33 -29344.645227   2855.022278   2715.521782   -467.341408
PE36  23493.727139   9248.297348  15444.679695    560.763553
PG01 -17685.634470 -14376.073710 -14137.203432   -378.987674
PG02  -5110.230740  14813.421593  22082.982204   -455.141103
PG03 -12602.852746 -21624.621687   8980.828249   -174.311347
PG04 -10803.274411 -10754.811986  21762.569048    -88.742875
PG05    323.493869  24446.963927   9992.484640    -12.587924
PG06 -16687.416983   8798.988104  18767.377951   -270.697956
PG07 -26160.747295  -5547.678665  -1839.738726   -280.091469
PG08   -363.141408 -18534.332000 -18906.993654    -33.840379
PG09 -18703.218072    353.861086  18814.200616   -216.419276
PG10  13587.036754  -6943.416794 -21633.245524   -339.581332
PG11  -8060.939222 -14808.776729 -20975.613174   -278.590905
PG12  10383.512077  23097.174481   8040.180299    118.447461
PG13  -8612.951871  20144.563475 -15067.850576      9.633483
PG14  18483.084556 -18777.184785   2746.683192    -13.291788
PG15   3491.211321  18491.814502 -18915.032994   -231.524017
PG16    974.337006 -24884.417450   8343.931960   -157.653900
PG17 -21497.219040  13989.242625  -6386.157509    264.007158
PG18  25856.157867   5926.133187  -1752.464745    188.208401
PG19 -20089.323562  17336.919125    572.679833   -159.403991
PG20  17730.622267   4979.873881 -19288.554398    527.703072
PG21  26066.113104   3167.353051  -2184.273530     -1.983653
PG22  -9494.450647 -24883.172892     67.258385   -782.444513
PG23 -19331.926603    867.367762  18759.760529   -114.567012
PG24  16563.798480  14539.887750 -15272.809982    -12.966979
PG25  15382.840535  15096.390024  15453.910322      3.718116
PG26   7519.309271 -18203.328888  17679.615480    205.561992
PG27   9701.262207 -21551.184864 -11909.602880   -292.490976
PG28 -12999.963370   8068.830514 -21149.566866    717.794593
PG29  16430.435268   3529.624175  20528.839656   -103.306135
PG30 -23493.355580   2586.723393 -12286.885848   -219.124731
PG31  15958.375728  -9484.918071  19118.484662    -42.085603
PG32  20673.237101 -15327.628196  -6167.010138    279.562506
PJ01 -28581.538056  26621.956549  20866.385712   -305.280882
PJ02 -20643.781898  19647.900197 -26561.444777     -0.083257
PJ03 -29642.241407  29899.912773   8311.966541     -2.921391
PJ07 -25368.631404  33683.841523     -4.700014     -0.027069
PR01  11774.521239  -2654.281742 -22465.693548     61.459288
PR02  10080.619668 -21470.518754  -9266.946441    426.459134
PR03   2052.501179 -24050.199724   8224.914810     14.924324
PR04  -6881.764990 -12912.347860  20926.386082     48.961993
PR05 -12000.567934   5505.874722  21845.240351     50.381678
PR07  -1849.821552  23938.028233  -8630.813139    -36.464749
PR08   6918.101536  12977.744519 -20786.135871    -52.199233
PR09  -2772.182827  12361.765147 -22116.660325    132.327420
PR11  19173.491910  16532.237886   2916.697653    -23.428464
PR12  17612.441532   5391.166665  17680.585001    130.385790
PR13   5797.386796  -9509.868392  22929.127898    -38.639879
PR14  -9292.921194 -18767.767431  14582.865113     51.164208
PR15 -18864.892780 -17050.452319  -2001.507036    106.473159
PR16 -17496.743653  -4398.794906 -17999.716700     -3.492127
PR17   2344.219278 -11388.534178 -22701.872302    324.444454
PR18 -15118.201077  -5149.534060 -19899.090876     35.185099
PR19 -24391.649050   2931.545297  -6872.008347    -93.101257
PR20 -19549.496738  10602.017330  12542.789333   -411.582820
PR21  -1319.283248  11100.468582  22923.216100   -124.223448
PR22  17056.981474   3987.050721  18487.774864     -1.021742
PR23  24626.751949  -6635.215835     28.965410    305.202731
PR24  18891.800440 -11127.557126 -13028.120428     -1.768757
PR26 -22023.402150   9819.753148   8292.446676   -395.883220
EOF
